{"fetched_at":"2026-03-29T16:36:15Z","count":15609,"tles":[{"name":"STARLINK-5917","line1":"1 55942U 23037AE  26087.84682136  .00000411  00000+0  42268-4 0  9992","line2":"2 55942  69.9998 235.9931 0003258 273.0842  86.9944 14.98335142166859","category":"Starlink"}]}