{
  "norad_id": 55942,
  "name": "STARLINK-5917",
  "history": [
    {
      "epoch": "2026-03-28T20:19:25.365504",
      "apogee_km": 574.3049134564853,
      "perigee_km": 569.7750661016271,
      "latitude_deg": 5.2645475506221855,
      "longitude_deg": -144.50514943990856,
      "semi_major_axis_km": 6950.176989779056,
      "eccentricity": 0.00032588,
      "inclination_deg": 69.9998,
      "raan_deg": 235.9931,
      "arg_perigee_deg": 273.0842,
      "mean_anomaly_deg": 86.9944,
      "mean_motion_rev_day": 14.98335142
    }
  ]
}